STARLINK-31177          
1 58873U 24019W   26068.54647456  .00000738  00000+0  36328-4 0  9993
2 58873  43.0012 249.4546 0001111 231.4726 128.6026 15.27575150119066
KUIPER-00209            
1 67776U 26030N   26068.61786546  .00035298  00000+0  11963-2 0  9997
2 67776  51.8838 220.0775 0012191  59.1967 301.0215 15.30161950  5077
